[{"OBJECT_NAME":"HULIANWANG DIGUI-81","OBJECT_ID":"2025-187J","EPOCH":"2026-03-04T04:16:58.344384","MEAN_MOTION":13.29341289,"ECCENTRICITY":0.0001059,"INCLINATION":50.0055,"RA_OF_ASC_NODE":222.4427,"ARG_OF_PERICENTER":133.6213,"MEAN_ANOMALY":226.4747,"EPHEMERIS_TYPE":0,"CLASSIFICATION_TYPE":"U","NORAD_CAT_ID":65313,"ELEMENT_SET_NO":999,"REV_AT_EPOCH":2574,"BSTAR":5.1642e-5,"MEAN_MOTION_DOT":-1.0e-6,"MEAN_MOTION_DDOT":0},{"OBJECT_NAME":"HULIANWANG DIGUI-82","OBJECT_ID":"2025-220A","EPOCH":"2026-03-04T03:39:35.485920","MEAN_MOTION":13.24421812,"ECCENTRICITY":0.0002244,"INCLINATION":86.4897,"RA_OF_ASC_NODE":79.3372,"ARG_OF_PERICENTER":101.7673,"MEAN_ANOMALY":258.3713,"EPHEMERIS_TYPE":0,"CLASSIFICATION_TYPE":"U","NORAD_CAT_ID":65817,"ELEMENT_SET_NO":999,"REV_AT_EPOCH":2101,"BSTAR":0.00012673,"MEAN_MOTION_DOT":6.9e-7,"MEAN_MOTION_DDOT":0},{"OBJECT_NAME":"HULIANWANG DIGUI-83","OBJECT_ID":"2025-220B","EPOCH":"2026-03-04T03:28:46.958880","MEAN_MOTION":13.24421008,"ECCENTRICITY":0.0002237,"INCLINATION":86.4919,"RA_OF_ASC_NODE":79.3698,"ARG_OF_PERICENTER":101.5171,"MEAN_ANOMALY":258.6214,"EPHEMERIS_TYPE":0,"CLASSIFICATION_TYPE":"U","NORAD_CAT_ID":65818,"ELEMENT_SET_NO":999,"REV_AT_EPOCH":2101,"BSTAR":0.00016004,"MEAN_MOTION_DOT":8.3e-7,"MEAN_MOTION_DDOT":0},{"OBJECT_NAME":"HULIANWANG DIGUI-84","OBJECT_ID":"2025-220C","EPOCH":"2026-03-04T03:17:51.922464","MEAN_MOTION":13.24421404,"ECCENTRICITY":0.0002231,"INCLINATION":86.4856,"RA_OF_ASC_NODE":79.264,"ARG_OF_PERICENTER":100.6606,"MEAN_ANOMALY":259.4779,"EPHEMERIS_TYPE":0,"CLASSIFICATION_TYPE":"U","NORAD_CAT_ID":65819,"ELEMENT_SET_NO":999,"REV_AT_EPOCH":2101,"BSTAR":0.00013969,"MEAN_MOTION_DOT":7.5e-7,"MEAN_MOTION_DDOT":0},{"OBJECT_NAME":"HULIANWANG DIGUI-85","OBJECT_ID":"2025-220D","EPOCH":"2026-03-04T03:06:55.235808","MEAN_MOTION":13.24421954,"ECCENTRICITY":0.0002222,"INCLINATION":86.4917,"RA_OF_ASC_NODE":79.3601,"ARG_OF_PERICENTER":101.9789,"MEAN_ANOMALY":258.1594,"EPHEMERIS_TYPE":0,"CLASSIFICATION_TYPE":"U","NORAD_CAT_ID":65820,"ELEMENT_SET_NO":999,"REV_AT_EPOCH":2101,"BSTAR":0.00013605,"MEAN_MOTION_DOT":7.3e-7,"MEAN_MOTION_DDOT":0},{"OBJECT_NAME":"HULIANWANG DIGUI-86","OBJECT_ID":"2025-220E","EPOCH":"2026-03-04T02:56:10.006656","MEAN_MOTION":13.24420792,"ECCENTRICITY":0.0002218,"INCLINATION":86.4896,"RA_OF_ASC_NODE":79.3215,"ARG_OF_PERICENTER":101.7007,"MEAN_ANOMALY":258.4376,"EPHEMERIS_TYPE":0,"CLASSIFICATION_TYPE":"U","NORAD_CAT_ID":65821,"ELEMENT_SET_NO":999,"REV_AT_EPOCH":2101,"BSTAR":9.6706e-5,"MEAN_MOTION_DOT":5.6e-7,"MEAN_MOTION_DDOT":0},{"OBJECT_NAME":"HULIANWANG DIGUI-87","OBJECT_ID":"2025-231A","EPOCH":"2026-03-04T03:21:06.799392","MEAN_MOTION":13.29330243,"ECCENTRICITY":6.06e-5,"INCLINATION":49.999,"RA_OF_ASC_NODE":192.6299,"ARG_OF_PERICENTER":179.1141,"MEAN_ANOMALY":180.9733,"EPHEMERIS_TYPE":0,"CLASSIFICATION_TYPE":"U","NORAD_CAT_ID":65995,"ELEMENT_SET_NO":999,"REV_AT_EPOCH":1891,"BSTAR":4.9561e-5,"MEAN_MOTION_DOT":-1.01e-6,"MEAN_MOTION_DDOT":0},{"OBJECT_NAME":"HULIANWANG DIGUI-88","OBJECT_ID":"2025-231B","EPOCH":"2026-03-04T03:33:10.407168","MEAN_MOTION":13.29329301,"ECCENTRICITY":6.25e-5,"INCLINATION":49.9976,"RA_OF_ASC_NODE":192.6598,"ARG_OF_PERICENTER":184.8731,"MEAN_ANOMALY":175.2135,"EPHEMERIS_TYPE":0,"CLASSIFICATION_TYPE":"U","NORAD_CAT_ID":65996,"ELEMENT_SET_NO":999,"REV_AT_EPOCH":1891,"BSTAR":5.8976e-5,"MEAN_MOTION_DOT":-9.7e-7,"MEAN_MOTION_DDOT":0},{"OBJECT_NAME":"HULIANWANG DIGUI-89","OBJECT_ID":"2025-231C","EPOCH":"2026-03-04T03:09:04.863456","MEAN_MOTION":13.29329885,"ECCENTRICITY":6.4e-5,"INCLINATION":49.9954,"RA_OF_ASC_NODE":192.5472,"ARG_OF_PERICENTER":185.9761,"MEAN_ANOMALY":174.1103,"EPHEMERIS_TYPE":0,"CLASSIFICATION_TYPE":"U","NORAD_CAT_ID":65997,"ELEMENT_SET_NO":999,"REV_AT_EPOCH":1891,"BSTAR":4.8664e-5,"MEAN_MOTION_DOT":-1.01e-6,"MEAN_MOTION_DDOT":0},{"OBJECT_NAME":"HULIANWANG DIGUI-90","OBJECT_ID":"2025-231D","EPOCH":"2026-03-03T17:55:45.673824","MEAN_MOTION":13.29330007,"ECCENTRICITY":6.087e-5,"INCLINATION":49.9982,"RA_OF_ASC_NODE":193.8851,"ARG_OF_PERICENTER":183.3466,"MEAN_ANOMALY":176.7402,"EPHEMERIS_TYPE":0,"CLASSIFICATION_TYPE":"U","NORAD_CAT_ID":65998,"ELEMENT_SET_NO":999,"REV_AT_EPOCH":1886,"BSTAR":2.9858796e-5,"MEAN_MOTION_DOT":-1.1e-6,"MEAN_MOTION_DDOT":0},{"OBJECT_NAME":"HULIANWANG DIGUI-91","OBJECT_ID":"2025-231E","EPOCH":"2026-03-04T02:45:01.498752","MEAN_MOTION":13.29329991,"ECCENTRICITY":6.26e-5,"INCLINATION":50.0002,"RA_OF_ASC_NODE":192.5173,"ARG_OF_PERICENTER":184.0025,"MEAN_ANOMALY":176.0843,"EPHEMERIS_TYPE":0,"CLASSIFICATION_TYPE":"U","NORAD_CAT_ID":65999,"ELEMENT_SET_NO":999,"REV_AT_EPOCH":1891,"BSTAR":7.0714e-5,"MEAN_MOTION_DOT":-9.1e-7,"MEAN_MOTION_DDOT":0},{"OBJECT_NAME":"HULIANWANG DIGUI-92","OBJECT_ID":"2025-231F","EPOCH":"2026-03-04T02:32:58.911360","MEAN_MOTION":13.29330471,"ECCENTRICITY":6.2e-5,"INCLINATION":50.0043,"RA_OF_ASC_NODE":192.5187,"ARG_OF_PERICENTER":184.6391,"MEAN_ANOMALY":175.4475,"EPHEMERIS_TYPE":0,"CLASSIFICATION_TYPE":"U","NORAD_CAT_ID":66000,"ELEMENT_SET_NO":999,"REV_AT_EPOCH":1891,"BSTAR":5.8102e-5,"MEAN_MOTION_DOT":-9.7e-7,"MEAN_MOTION_DDOT":0},{"OBJECT_NAME":"HULIANWANG DIGUI-93","OBJECT_ID":"2025-231G","EPOCH":"2026-03-04T02:08:58.350336","MEAN_MOTION":13.29329572,"ECCENTRICITY":6.04e-5,"INCLINATION":50.001,"RA_OF_ASC_NODE":192.3992,"ARG_OF_PERICENTER":184.0512,"MEAN_ANOMALY":176.0355,"EPHEMERIS_TYPE":0,"CLASSIFICATION_TYPE":"U","NORAD_CAT_ID":66001,"ELEMENT_SET_NO":999,"REV_AT_EPOCH":1891,"BSTAR":5.4632e-5,"MEAN_MOTION_DOT":-9.9e-7,"MEAN_MOTION_DDOT":0},{"OBJECT_NAME":"HULIANWANG DIGUI-94","OBJECT_ID":"2025-231H","EPOCH":"2026-03-04T02:20:57.359904","MEAN_MOTION":13.29330734,"ECCENTRICITY":6.24e-5,"INCLINATION":50.0049,"RA_OF_ASC_NODE":192.4868,"ARG_OF_PERICENTER":185.7574,"MEAN_ANOMALY":174.3291,"EPHEMERIS_TYPE":0,"CLASSIFICATION_TYPE":"U","NORAD_CAT_ID":66002,"ELEMENT_SET_NO":999,"REV_AT_EPOCH":1891,"BSTAR":6.495e-5,"MEAN_MOTION_DOT":-9.4e-7,"MEAN_MOTION_DDOT":0},{"OBJECT_NAME":"HULIANWANG DIGUI-95","OBJECT_ID":"2025-231J","EPOCH":"2026-03-04T03:45:24.252480","MEAN_MOTION":13.29325706,"ECCENTRICITY":6.26e-5,"INCLINATION":50.0022,"RA_OF_ASC_NODE":192.1009,"ARG_OF_PERICENTER":181.9666,"MEAN_ANOMALY":178.1204,"EPHEMERIS_TYPE":0,"CLASSIFICATION_TYPE":"U","NORAD_CAT_ID":66003,"ELEMENT_SET_NO":999,"REV_AT_EPOCH":1892,"BSTAR":5.8385e-5,"MEAN_MOTION_DOT":-9.7e-7,"MEAN_MOTION_DDOT":0},{"OBJECT_NAME":"HULIANWANG DIGUI-96","OBJECT_ID":"2025-258A","EPOCH":"2026-03-04T00:42:42.624000","MEAN_MOTION":13.2933133,"ECCENTRICITY":3.81e-5,"INCLINATION":50.0052,"RA_OF_ASC_NODE":312.7898,"ARG_OF_PERICENTER":92.486,"MEAN_ANOMALY":267.6056,"EPHEMERIS_TYPE":0,"CLASSIFICATION_TYPE":"U","NORAD_CAT_ID":66412,"ELEMENT_SET_NO":999,"REV_AT_EPOCH":1574,"BSTAR":0.00016763,"MEAN_MOTION_DOT":-4.6e-7,"MEAN_MOTION_DDOT":0}]
