HULIANWANG DIGUI-81     
1 65313U 25187J   26063.17845306 -.00000100  00000+0  51642-4 0  9995
2 65313  50.0055 222.4427 0001059 133.6213 226.4747 13.29341289 25744
HULIANWANG DIGUI-82     
1 65817U 25220A   26063.15249405  .00000069  00000+0  12673-3 0  9991
2 65817  86.4897  79.3372 0002244 101.7673 258.3713 13.24421812 21010
HULIANWANG DIGUI-83     
1 65818U 25220B   26063.14498795  .00000083  00000+0  16004-3 0  9997
2 65818  86.4919  79.3698 0002237 101.5171 258.6214 13.24421008 21016
HULIANWANG DIGUI-84     
1 65819U 25220C   26063.13740651  .00000075  00000+0  13969-3 0  9996
2 65819  86.4856  79.2640 0002231 100.6606 259.4779 13.24421404 21015
HULIANWANG DIGUI-85     
1 65820U 25220D   26063.12980597  .00000073  00000+0  13605-3 0  9997
2 65820  86.4917  79.3601 0002222 101.9789 258.1594 13.24421954 21010
HULIANWANG DIGUI-86     
1 65821U 25220E   26063.12233804  .00000056  00000+0  96706-4 0  9995
2 65821  86.4896  79.3215 0002218 101.7007 258.4376 13.24420792 21014
HULIANWANG DIGUI-87     
1 65995U 25231A   26063.13966203 -.00000101  00000+0  49561-4 0  9995
2 65995  49.9990 192.6299 0000606 179.1141 180.9733 13.29330243 18910
HULIANWANG DIGUI-88     
1 65996U 25231B   26063.14803712 -.00000097  00000+0  58976-4 0  9996
2 65996  49.9976 192.6598 0000625 184.8731 175.2135 13.29329301 18912
HULIANWANG DIGUI-89     
1 65997U 25231C   26063.13130629 -.00000101  00000+0  48664-4 0  9995
2 65997  49.9954 192.5472 0000640 185.9761 174.1103 13.29329885 18911
HULIANWANG DIGUI-90     
1 65998U 25231D   26062.74705641 -.00000110  00000+0  29859-4 0  9999
2 65998  49.9982 193.8851 0000608 183.3466 176.7402 13.29330007 18868
HULIANWANG DIGUI-91     
1 65999U 25231E   26063.11460068 -.00000091  00000+0  70714-4 0  9997
2 65999  50.0002 192.5173 0000626 184.0025 176.0843 13.29329991 18915
HULIANWANG DIGUI-92     
1 66000U 25231F   26063.10623740 -.00000097  00000+0  58102-4 0  9991
2 66000  50.0043 192.5187 0000620 184.6391 175.4475 13.29330471 18914
HULIANWANG DIGUI-93     
1 66001U 25231G   26063.08956424 -.00000099  00000+0  54632-4 0  9993
2 66001  50.0010 192.3992 0000604 184.0512 176.0355 13.29329572 18916
HULIANWANG DIGUI-94     
1 66002U 25231H   26063.09788611 -.00000094  00000+0  64950-4 0  9995
2 66002  50.0049 192.4868 0000624 185.7574 174.3291 13.29330734 18912
HULIANWANG DIGUI-95     
1 66003U 25231J   26063.15653070 -.00000097  00000+0  58385-4 0  9991
2 66003  50.0022 192.1009 0000626 181.9666 178.1204 13.29325706 18920
HULIANWANG DIGUI-96     
1 66412U 25258A   26063.02966000 -.00000046  00000+0  16763-3 0  9997
2 66412  50.0052 312.7898 0000381  92.4860 267.6056 13.29331330 15749
